[{"OBJECT_NAME":"STARLINK-34917","OBJECT_ID":"2025-175S","EPOCH":"2026-03-09T22:00:01.999584","MEAN_MOTION":15.05633082,"ECCENTRICITY":0.00022216,"INCLINATION":97.6024,"RA_OF_ASC_NODE":302.9089,"ARG_OF_PERICENTER":73.1727,"MEAN_ANOMALY":24.4203,"EPHEMERIS_TYPE":0,"CLASSIFICATION_TYPE":"U","NORAD_CAT_ID":65190,"ELEMENT_SET_NO":999,"REV_AT_EPOCH":579,"BSTAR":0.0015512338,"MEAN_MOTION_DOT":0.00022383,"MEAN_MOTION_DDOT":0},{"OBJECT_NAME":"COSMOS 2251 DEB","OBJECT_ID":"1993-036AZN","EPOCH":"2026-03-08T04:55:11.679456","MEAN_MOTION":14.74823481,"ECCENTRICITY":0.01364476,"INCLINATION":73.9716,"RA_OF_ASC_NODE":347.1087,"ARG_OF_PERICENTER":142.1945,"MEAN_ANOMALY":218.8911,"EPHEMERIS_TYPE":0,"CLASSIFICATION_TYPE":"U","NORAD_CAT_ID":36385,"ELEMENT_SET_NO":999,"REV_AT_EPOCH":86361,"BSTAR":0.002162243,"MEAN_MOTION_DOT":0.00016854,"MEAN_MOTION_DDOT":0}]
